ORBCOMM FM37 [-]        
1 33064U 08031E   24107.57101424  .00004453  00000+0  66548-3 0  9993
2 33064  48.4394 206.3410 0006045 341.4812  32.1084 14.76231460850942
ORBCOMM FM40 [-]        
1 33065U 08031F   24108.19770632  .00004907  00000+0  70862-3 0  9994
2 33065  48.4416 192.9731 0007271 353.7980  23.3859 14.77527325851513
ORBCOMM FM107 [+]       
1 40087U 14040B   24107.60144913  .00002215  00000+0  53065-3 0  9991
2 40087  47.0047 229.4772 0000998 166.2076 193.8837 14.56483302518919
ORBCOMM FM106 [-]       
1 40088U 14040C   24107.96718750  .00003742  00000+0  69362-3 0  9990
2 40088  47.0599  82.6241 0018490 250.9157 108.9730 14.66869288521059
ORBCOMM FM111 [-]       
1 40089U 14040D   24107.75858561  .00005578  00000+0  72217-3 0  9995
2 40089  47.0049 347.4331 0033254 316.0993  43.7261 14.81537829526891
